IRIDIUM 144             
1 43249U 18030A   23239.81944010  .00000309  00000+0  10325-3 0  9995
2 43249  86.4022 358.5276 0002307  87.7638 272.3822 14.34217480283310
IRIDIUM 149             
1 43250U 18030B   23239.82578355  .00000323  00000+0  10832-3 0  9992
2 43250  86.4020 358.5033 0002197  87.4156 272.7291 14.34218088283331
IRIDIUM 157             
1 43251U 18030C   23240.61226352  .00000337  00000+0  11314-3 0  9990
2 43251  86.4023 358.2053 0002137  98.1887 261.9551 14.34218554283425
IRIDIUM 140             
1 43252U 18030D   23240.77084419  .00000351  00000+0  11815-3 0  9996
2 43252  86.4022 358.1540 0002417  89.3296 270.8177 14.34219103283505
IRIDIUM 145             
1 43253U 18030E   23240.75814413  .00000326  00000+0  10947-3 0  9997
2 43253  86.4023 358.1339 0002174  81.2545 278.8897 14.34218419283439
IRIDIUM 146             
1 43254U 18030F   23240.11119922  .00000316  00000+0  10586-3 0  9999
2 43254  86.4021 358.4196 0002096  88.1531 271.9905 14.34218273283359
IRIDIUM 148             
1 43255U 18030G   23239.87016540  .00000343  00000+0  11525-3 0  9997
2 43255  86.4021 358.5480 0001876  89.2914 270.8496 14.34223249283351
IRIDIUM 142             
1 43256U 18030H   23240.39661693  .00000321  00000+0  10764-3 0  9992
2 43256  86.4019 358.2546 0002076  91.0698 269.0735 14.34219523283392
